{
  "type": "FeatureCollection",
  "features": [
    {
      "type": "Feature",
      "properties": {
        "norad_id": 66538,
        "name": "STARLINK-35577",
        "group": "last-30-days",
        "lat": 39.490154094955564,
        "lon": 120.71876547854681,
        "alt_km": 409.59770482176737,
        "timestamp": "2025-12-11T22:43:46.023481+00:00",
        "meta_object_name": "STARLINK-35577",
        "meta_object_id": "2025-265Y",
        "meta_epoch": "2025-12-11T14:00:01.999872",
        "meta_mean_motion": 15.50604622,
        "meta_eccentricity": 0.00011655,
        "meta_inclination": 43.0004,
        "meta_ra_of_asc_node": 60.6807,
        "meta_arg_of_pericenter": 282.9708,
        "meta_mean_anomaly": 273.2985,
        "meta_ephemeris_type": 0,
        "meta_classification_type": "U",
        "meta_norad_cat_id": 66538,
        "meta_element_set_no": 999,
        "meta_rev_at_epoch": 480,
        "meta_bstar": -0.0022338483,
        "meta_mean_motion_dot": -0.00129363,
        "meta_mean_motion_ddot": 0,
        "tle_line1": "1 66538U 25265Y   25345.58335648 -.00129363  00000+0 -22338-2 0  9994",
        "tle_line2": "2 66538  43.0004  60.6807 0001165 282.9708 273.2985 15.50604622  4806"
      },
      "geometry": {
        "type": "Point",
        "coordinates": [
          120.71876547854681,
          39.490154094955564
        ]
      }
    },
    {
      "type": "Feature",
      "properties": {
        "norad_id": 66539,
        "name": "STARLINK-35697",
        "group": "last-30-days",
        "lat": 40.08098507057539,
        "lon": 123.10799569183412,
        "alt_km": 409.7107530108915,
        "timestamp": "2025-12-11T22:43:46.023493+00:00",
        "meta_object_name": "STARLINK-35697",
        "meta_object_id": "2025-265Z",
        "meta_epoch": "2025-12-11T14:00:01.999872",
        "meta_mean_motion": 15.50655857,
        "meta_eccentricity": 0.00013325,
        "meta_inclination": 43.0005,
        "meta_ra_of_asc_node": 60.6753,
        "meta_arg_of_pericenter": 263.6887,
        "meta_mean_anomaly": 294.4717,
        "meta_ephemeris_type": 0,
        "meta_classification_type": "U",
        "meta_norad_cat_id": 66539,
        "meta_element_set_no": 999,
        "meta_rev_at_epoch": 480,
        "meta_bstar": -0.0030985013,
        "meta_mean_motion_dot": -0.0017852,
        "meta_mean_motion_ddot": 0,
        "tle_line1": "1 66539U 25265Z   25345.58335648 -.00178520  00000+0 -30985-2 0  9991",
        "tle_line2": "2 66539  43.0005  60.6753 0001332 263.6887 294.4717 15.50655857  4802"
      },
      "geometry": {
        "type": "Point",
        "coordinates": [
          123.10799569183412,
          40.08098507057539
        ]
      }
    },
    {
      "type": "Feature",
      "properties": {
        "norad_id": 66540,
        "name": "STARLINK-35818",
        "group": "last-30-days",
        "lat": 40.633377788979175,
        "lon": 125.59575899577385,
        "alt_km": 409.7549414454015,
        "timestamp": "2025-12-11T22:43:46.023504+00:00",
        "meta_object_name": "STARLINK-35818",
        "meta_object_id": "2025-265AA",
        "meta_epoch": "2025-12-11T14:00:01.999872",
        "meta_mean_motion": 15.50749671,
        "meta_eccentricity": 0.00012925,
        "meta_inclination": 43.0003,
        "meta_ra_of_asc_node": 60.671,
        "meta_arg_of_pericenter": 271.2945,
        "meta_mean_anomaly": 288.8132,
        "meta_ephemeris_type": 0,
        "meta_classification_type": "U",
        "meta_norad_cat_id": 66540,
        "meta_element_set_no": 999,
        "meta_rev_at_epoch": 480,
        "meta_bstar": -0.0065555081,
        "meta_mean_motion_dot": -0.00369563,
        "meta_mean_motion_ddot": 0,
        "tle_line1": "1 66540U 25265AA  25345.58335648 -.00369563  00000+0 -65555-2 0  9993",
        "tle_line2": "2 66540  43.0003  60.6710 0001292 271.2945 288.8132 15.50749671  4806"
      },
      "geometry": {
        "type": "Point",
        "coordinates": [
          125.59575899577385,
          40.633377788979175
        ]
      }
    },
    {
      "type": "Feature",
      "properties": {
        "norad_id": 66541,
        "name": "STARLINK-35796",
        "group": "last-30-days",
        "lat": 41.06143104817103,
        "lon": 127.7452227867428,
        "alt_km": 409.5646250804639,
        "timestamp": "2025-12-11T22:43:46.023514+00:00",
        "meta_object_name": "STARLINK-35796",
        "meta_object_id": "2025-265AB",
        "meta_epoch": "2025-12-11T14:00:01.999872",
        "meta_mean_motion": 15.50515403,
        "meta_eccentricity": 0.0001802,
        "meta_inclination": 43.0005,
        "meta_ra_of_asc_node": 60.6661,
        "meta_arg_of_pericenter": 275.4296,
        "meta_mean_anomaly": 286.4306,
        "meta_ephemeris_type": 0,
        "meta_classification_type": "U",
        "meta_norad_cat_id": 66541,
        "meta_element_set_no": 999,
        "meta_rev_at_epoch": 480,
        "meta_bstar": 0.0018484335,
        "meta_mean_motion_dot": 0.00109377,
        "meta_mean_motion_ddot": 0,
        "tle_line1": "1 66541U 25265AB  25345.58335648  .00109377  00000+0  18484-2 0  9996",
        "tle_line2": "2 66541  43.0005  60.6661 0001802 275.4296 286.4306 15.50515403  4807"
      },
      "geometry": {
        "type": "Point",
        "coordinates": [
          127.7452227867428,
          41.06143104817103
        ]
      }
    },
    {
      "type": "Feature",
      "properties": {
        "norad_id": 66542,
        "name": "STARLINK-35833",
        "group": "last-30-days",
        "lat": 41.53531721945925,
        "lon": 130.44941458484078,
        "alt_km": 409.7142028387243,
        "timestamp": "2025-12-11T22:43:46.023526+00:00",
        "meta_object_name": "STARLINK-35833",
        "meta_object_id": "2025-265AC",
        "meta_epoch": "2025-12-11T14:00:01.999872",
        "meta_mean_motion": 15.50620304,
        "meta_eccentricity": 0.00015653,
        "meta_inclination": 43.0004,
        "meta_ra_of_asc_node": 60.6622,
        "meta_arg_of_pericenter": 270.6629,
        "meta_mean_anomaly": 293.2821,
        "meta_ephemeris_type": 0,
        "meta_classification_type": "U",
        "meta_norad_cat_id": 66542,
        "meta_element_set_no": 999,
        "meta_rev_at_epoch": 480,
        "meta_bstar": -0.0029373703,
        "meta_mean_motion_dot": -0.00169243,
        "meta_mean_motion_ddot": 0,
        "tle_line1": "1 66542U 25265AC  25345.58335648 -.00169243  00000+0 -29374-2 0  9997",
        "tle_line2": "2 66542  43.0004  60.6622 0001565 270.6629 293.2821 15.50620304  4802"
      },
      "geometry": {
        "type": "Point",
        "coordinates": [
          130.44941458484078,
          41.53531721945925
        ]
      }
    },
    {
      "type": "Feature",
      "properties": {
        "norad_id": 66543,
        "name": "STARLINK-35315",
        "group": "last-30-days",
        "lat": 41.91456166313057,
        "lon": 132.96782755108438,
        "alt_km": 409.40231841686,
        "timestamp": "2025-12-11T22:43:46.023537+00:00",
        "meta_object_name": "STARLINK-35315",
        "meta_object_id": "2025-265AD",
        "meta_epoch": "2025-12-11T14:00:01.999872",
        "meta_mean_motion": 15.50660782,
        "meta_eccentricity": 0.00013007,
        "meta_inclination": 43.0004,
        "meta_ra_of_asc_node": 60.656,
        "meta_arg_of_pericenter": 275.1004,
        "meta_mean_anomaly": 290.7216,
        "meta_ephemeris_type": 0,
        "meta_classification_type": "U",
        "meta_norad_cat_id": 66543,
        "meta_element_set_no": 999,
        "meta_rev_at_epoch": 470,
        "meta_bstar": -0.0033109141,
        "meta_mean_motion_dot": -0.0019048,
        "meta_mean_motion_ddot": 0,
        "tle_line1": "1 66543U 25265AD  25345.58335648 -.00190480  00000+0 -33109-2 0  9996",
        "tle_line2": "2 66543  43.0004  60.6560 0001300 275.1004 290.7216 15.50660782  4701"
      },
      "geometry": {
        "type": "Point",
        "coordinates": [
          132.96782755108438,
          41.91456166313057
        ]
      }
    },
    {
      "type": "Feature",
      "properties": {
        "norad_id": 66544,
        "name": "STARLINK-35728",
        "group": "last-30-days",
        "lat": 42.23512174753978,
        "lon": 135.49137902252966,
        "alt_km": 409.49086180199265,
        "timestamp": "2025-12-11T22:43:46.023548+00:00",
        "meta_object_name": "STARLINK-35728",
        "meta_object_id": "2025-265AE",
        "meta_epoch": "2025-12-11T14:00:01.999872",
        "meta_mean_motion": 15.50604317,
        "meta_eccentricity": 0.00014931,
        "meta_inclination": 43.0005,
        "meta_ra_of_asc_node": 60.6516,
        "meta_arg_of_pericenter": 275.5579,
        "meta_mean_anomaly": 292.2051,
        "meta_ephemeris_type": 0,
        "meta_classification_type": "U",
        "meta_norad_cat_id": 66544,
        "meta_element_set_no": 999,
        "meta_rev_at_epoch": 480,
        "meta_bstar": -0.0021069345,
        "meta_mean_motion_dot": -0.00122147,
        "meta_mean_motion_ddot": 0,
        "tle_line1": "1 66544U 25265AE  25345.58335648 -.00122147  00000+0 -21069-2 0  9994",
        "tle_line2": "2 66544  43.0005  60.6516 0001493 275.5579 292.2051 15.50604317  4805"
      },
      "geometry": {
        "type": "Point",
        "coordinates": [
          135.49137902252966,
          42.23512174753978
        ]
      }
    }
  ]
}